IRIDIUM 136             
1 42962U 17061H   24275.73229644  .00000178  00000+0  56668-4 0  9995
2 42962  86.3909 285.7770 0002129  92.8212 267.3227 14.34219246365474
